KUIPER-00176            
1 65788U 25217AC  26001.66667824 -.00023114  00000+0 -29765-2 0  9998
2 65788  51.9001 339.4817 0000300 125.0494  89.4618 14.80447521  3112
KUIPER-00101            
1 65947U 25228A   26001.00003471 -.00023494  00000+0 -30630-2 0  9991
2 65947  51.8988 299.9148 0000312  40.1898 157.8609 14.79941088  5170
KUIPER-00113            
1 65948U 25228B   26001.66667824 -.00976421  00000+0 -12135+0 0  9996
2 65948  51.8996 292.1660 0006977  99.5005 111.0207 14.85205052  4755
KUIPER-00117            
1 65949U 25228C   26001.66667824  .00029546  00000+0  37577-2 0  9992
2 65949  51.8986 294.5069 0001218  62.9777  63.6081 14.81361128  3942
KUIPER-00121            
1 65950U 25228D   26001.66667824 -.01973879  00000+0 -22213+0 0  9992
2 65950  51.8955 289.5412 0004365 127.2219 118.1702 14.89957263  2694
KUIPER-00122            
1 65951U 25228E   26001.19652369  .00009319  00000+0  12477-2 0  9999
2 65951  51.9000 301.5335 0001234  54.6970 305.4108 14.80000448 13200
KUIPER-00123            
1 65952U 25228F   26001.23030575  .00009059  00000+0  12152-2 0  9995
2 65952  51.9003 301.4077 0001234  98.6187 261.4916 14.79951254 13200
KUIPER-00124            
1 65953U 25228G   26001.66667824  .00030809  00000+0  39692-2 0  9991
2 65953  51.8986 291.9736 0000993 117.8930   0.9559 14.80799478  5767
